NORAD_CAT_ID,OBJECT_NAME,OBJECT_TYPE,EPOCH,MEAN_MOTION,ECCENTRICITY,INCLINATION,RA_OF_ASC_NODE,ARG_OF_PERICENTER,MEAN_ANOMALY,BSTAR,MEAN_MOTION_DOT,MEAN_MOTION_DDOT,TLE_LINE0,TLE_LINE1,TLE_LINE2,SEMIMAJOR_AXIS,PERIOD,APOGEE,PERIGEE,DECAYED
55657.0,STARLINK-5328,PAYLOAD,2024-02-26 11:21:10,14.98322552,0.0003192,69.9991,236.0051,270.844,89.2353,-1.9515e-05,-3.26e-06,0.0,0 STARLINK-5328,1 55657U 23021AF  24057.47303277 -.00000326  00000-0 -19515-4 0  9995,2 55657  69.9991 236.0051 0003192 270.8440  89.2353 14.98322552 57801,6950.216,96.107,574.299,569.862,0.0
55657.0,STARLINK-5328,PAYLOAD,2024-02-26 14:33:26,14.98326751,0.0002715,69.9994,235.6699,271.0526,89.0322,-1.7929e-05,-3.07e-06,0.0,0 STARLINK-5328,1 55657U 23021AF  24057.60655118 -.00000307  00000-0 -17929-4 0  9990,2 55657  69.9994 235.6699 0002715 271.0526  89.0322 14.98326751 58120,6950.203,96.107,573.955,570.181,0.0
55657.0,STARLINK-5328,PAYLOAD,2024-02-26 20:57:58,14.98326108,0.000272,69.9994,234.9966,271.1338,88.9509,-2.4192e-05,-3.82e-06,0.0,0 STARLINK-5328,1 55657U 23021AF  24057.87359220 -.00000382  00000-0 -24192-4 0  9997,2 55657  69.9994 234.9966 0002720 271.1338  88.9509 14.98326108 58162,6950.205,96.107,573.96,570.179,0.0
55657.0,STARLINK-5328,PAYLOAD,2024-02-27 11:23:10,14.98331895,0.000266,69.9997,233.4825,265.7769,94.3086,-2.295e-05,-3.67e-06,0.0,0 STARLINK-5328,1 55657U 23021AF  24058.47442877 -.00000367  00000-0 -22950-4 0  9998,2 55657  69.9997 233.4825 0002660 265.7769  94.3086 14.98331895 57959,6950.187,96.107,573.901,570.203,0.0
55657.0,STARLINK-5328,PAYLOAD,2024-02-27 14:35:26,14.98332622,0.0002674,69.9997,233.1458,264.837,95.2484,-1.3557e-05,-2.55e-06,0.0,0 STARLINK-5328,1 55657U 23021AF  24058.60794757 -.00000255  00000-0 -13557-4 0  9999,2 55657  69.9997 233.1458 0002674 264.8370  95.2484 14.98332622 58278,6950.185,96.107,573.908,570.191,0.0
55657.0,STARLINK-5328,PAYLOAD,2024-02-27 20:59:58,14.98333076,0.0002692,69.9996,232.4723,267.0203,93.0648,-3.5342e-06,-1.35e-06,0.0,0 STARLINK-5328,1 55657U 23021AF  24058.87498667 -.00000135  00000-0 -35342-5 0  9993,2 55657  69.9996 232.4723 0002692 267.0203  93.0648 14.98333076 58311,6950.183,96.107,573.919,570.177,0.0
55657.0,STARLINK-5328,PAYLOAD,2024-02-28 13:01:19,14.98328362,0.0002819,69.9992,230.7882,268.0164,92.0672,3.6591e-05,3.44e-06,0.0,0 STARLINK-5328,1 55657U 23021AF  24059.54258799  .00000344  00000-0  36591-4 0  9994,2 55657  69.9992 230.7882 0002819 268.0164  92.0672 14.98328362 58118,6950.198,96.107,574.022,570.104,0.0
55657.0,STARLINK-5328,PAYLOAD,2024-02-28 14:37:27,14.98328444,0.0002822,69.9992,230.6198,268.0166,92.067,3.6629e-05,3.44e-06,0.0,0 STARLINK-5328,1 55657U 23021AF  24059.60934797  .00000344  00000-0  36629-4 0  9992,2 55657  69.9992 230.6198 0002822 268.0166  92.0670 14.98328444 58426,6950.198,96.107,574.024,570.101,0.0
55657.0,STARLINK-5328,PAYLOAD,2024-02-28 21:01:59,14.98328764,0.0002843,69.9994,229.9468,268.4725,91.6109,3.5372e-05,3.29e-06,0.0,0 STARLINK-5328,1 55657U 23021AF  24059.87638801  .00000329  00000-0  35372-4 0  9995,2 55657  69.9994 229.9468 0002843 268.4725  91.6109 14.98328764 58468,6950.197,96.107,574.038,570.086,0.0
55657.0,STARLINK-5328,PAYLOAD,2024-02-29 14:39:28,14.98328066,0.0002838,69.9996,228.0953,268.5862,91.4971,-4.7338e-05,-6.58e-06,0.0,0 STARLINK-5328,1 55657U 23021AF  24060.61075146 -.00000658  00000-0 -47338-4 0  9998,2 55657  69.9996 228.0953 0002838 268.5862  91.4971 14.98328066 58578,6950.199,96.107,574.036,570.091,0.0
55657.0,STARLINK-5328,PAYLOAD,2024-02-29 21:04:01,14.98328755,0.0002867,69.9998,227.4226,269.5249,90.5582,-3.5671e-05,-5.19e-06,0.0,0 STARLINK-5328,1 55657U 23021AF  24060.87779104 -.00000519  00000-0 -35671-4 0  9994,2 55657  69.9998 227.4226 0002867 269.5249  90.5582 14.98328755 58313,6950.197,96.107,574.054,570.069,0.0
55657.0,STARLINK-5328,PAYLOAD,2024-03-01 14:41:29,14.98332256,0.0002909,70.0,225.5712,269.6213,90.4613,5.453e-05,5.58e-06,0.0,0 STARLINK-5328,1 55657U 23021AF  24061.61214587  .00000558  00000-0  54530-4 0  9992,2 55657  70.0000 225.5712 0002909 269.6213  90.4613 14.98332256 58728,6950.186,96.107,574.073,570.029,0.0
55657.0,STARLINK-5328,PAYLOAD,2024-03-01 21:06:01,14.98336164,0.0002881,70.0001,224.898,269.3197,90.7632,6.6317e-05,6.98e-06,0.0,0 STARLINK-5328,1 55657U 23021AF  24061.87918242  .00000698  00000-0  66317-4 0  9990,2 55657  70.0001 224.8980 0002881 269.3197  90.7632 14.98336164 58462,6950.174,96.107,574.041,570.036,0.0
55657.0,STARLINK-5328,PAYLOAD,2024-03-02 14:43:30,14.98330926,0.0002855,70.0003,223.0465,270.015,90.0682,5.7912e-05,5.98e-06,0.0,0 STARLINK-5328,1 55657U 23021AF  24062.61354457  .00000598  00000-0  57912-4 0  9995,2 55657  70.0003 223.0465 0002855 270.0150  90.0682 14.98330926 58875,6950.19,96.107,574.039,570.071,0.0
55657.0,STARLINK-5328,PAYLOAD,2024-03-02 21:08:02,14.9833197,0.0002848,70.0003,222.3732,270.0231,90.0601,6.3514e-05,6.65e-06,0.0,0 STARLINK-5328,1 55657U 23021AF  24062.88058339  .00000665  00000-0  63514-4 0  9994,2 55657  70.0003 222.3732 0002848 270.0231  90.0601 14.98331970 58912,6950.187,96.107,574.031,570.072,0.0
55657.0,STARLINK-5328,PAYLOAD,2024-03-03 03:32:34,14.98329839,0.0002836,70.0003,221.7,269.6385,90.4449,4.9558e-06,-3.4e-07,0.0,0 STARLINK-5328,1 55657U 23021AF  24063.14762591 -.00000034  00000-0  49558-5 0  9990,2 55657  70.0003 221.7000 0002836 269.6385  90.4449 14.98329839 58650,6950.193,96.107,574.029,570.087,0.0
55657.0,STARLINK-5328,PAYLOAD,2024-03-03 14:45:31,14.98331407,0.000279,70.0004,220.5224,264.4934,95.5907,-5.9082e-05,-7.98e-06,0.0,0 STARLINK-5328,1 55657U 23021AF  24063.61494593 -.00000798  00000-0 -59082-4 0  9996,2 55657  70.0004 220.5224 0002790 264.4934  95.5907 14.98331407 59029,6950.189,96.107,573.993,570.114,0.0
55657.0,STARLINK-5328,PAYLOAD,2024-03-03 19:33:55,14.98331403,0.0002787,70.0004,220.0175,264.663,95.4211,-5.5288e-05,-7.53e-06,0.0,0 STARLINK-5328,1 55657U 23021AF  24063.81522558 -.00000753  00000-0 -55288-4 0  9996,2 55657  70.0004 220.0175 0002787 264.6630  95.4211 14.98331403 59056,6950.189,96.107,573.991,570.117,0.0
55657.0,STARLINK-5328,PAYLOAD,2024-03-04 11:35:15,14.98338717,0.0002865,70.0003,218.3336,266.3919,93.6913,5.6437e-05,5.81e-06,0.0,0 STARLINK-5328,1 55657U 23021AF  24064.48281537  .00000581  00000-0  56437-4 0  9993,2 55657  70.0003 218.3336 0002865 266.3919  93.6913 14.98338717 58851,6950.166,96.106,574.022,570.04,0.0
55657.0,STARLINK-5328,PAYLOAD,2024-03-04 14:47:31,14.98338409,0.0002871,70.0004,217.9969,266.262,93.8211,5.1882e-05,5.26e-06,0.0,0 STARLINK-5328,1 55657U 23021AF  24064.61633489  .00000526  00000-0  51882-4 0  9993,2 55657  70.0004 217.9969 0002871 266.2620  93.8211 14.98338409 59171,6950.167,96.106,574.027,570.036,0.0
55657.0,STARLINK-5328,PAYLOAD,2024-03-04 19:35:55,14.98341149,0.0002877,70.0004,217.492,267.3729,92.71,7.9489e-05,8.56e-06,0.0,0 STARLINK-5328,1 55657U 23021AF  24064.81661133  .00000856  00000-0  79489-4 0  9991,2 55657  70.0004 217.4920 0002877 267.3729  92.7100 14.98341149 59205,6950.158,96.106,574.023,570.024,0.0
55657.0,STARLINK-5328,PAYLOAD,2024-03-05 14:49:33,14.98315691,0.0003135,70.0011,215.4722,264.5245,95.5557,-3.685e-05,-5.32e-06,0.0,0 STARLINK-5328,1 55657U 23021AF  24065.61775148 -.00000532  00000-0 -36850-4 0  9990,2 55657  70.0011 215.4722 0003135 264.5245  95.5557 14.98315691 59324,6950.237,96.108,574.281,569.923,0.0
55657.0,STARLINK-5328,PAYLOAD,2024-03-05 19:37:57,14.9832231,0.0003097,70.0001,214.9666,267.1814,92.8991,-5.5421e-05,-7.54e-06,0.0,0 STARLINK-5328,1 55657U 23021AF  24065.81802911 -.00000754  00000-0 -55421-4 0  9992,2 55657  70.0001 214.9666 0003097 267.1814  92.8991 14.98322310 59050,6950.217,96.107,574.234,569.929,0.0
55657.0,STARLINK-5328,PAYLOAD,2024-03-06 11:39:18,14.98330789,0.0003037,70.0005,213.2829,265.9621,94.1191,-7.9755e-05,-1.045e-05,0.0,0 STARLINK-5328,1 55657U 23021AF  24066.48562620 -.00001045  00000-0 -79755-4 0  9996,2 55657  70.0005 213.2829 0003037 265.9621  94.1191 14.98330789 59150,6950.19,96.107,574.166,569.945,0.0
55657.0,STARLINK-5328,PAYLOAD,2024-03-06 13:15:26,14.98330621,0.0003056,70.0004,213.1146,266.085,93.996,-7.8401e-05,-1.028e-05,0.0,0 STARLINK-5328,1 55657U 23021AF  24066.55238630 -.00001028  00000-0 -78401-4 0  9993,2 55657  70.0004 213.1146 0003056 266.0850  93.9960 14.98330621 59467,6950.191,96.107,574.18,569.932,0.0
55657.0,STARLINK-5328,PAYLOAD,2024-03-07 14:53:35,14.98321729,0.0003009,70.0005,210.422,265.6938,94.3877,0.00013198,1.482e-05,0.0,0 STARLINK-5328,1 55657U 23021AF  24067.62054808  .00001482  00000-0  13198-3 0  9998,2 55657  70.0005 210.4220 0003009 265.6938  94.3877 14.98321729 59620,6950.218,96.108,574.175,569.992,0.0
55657.0,STARLINK-5328,PAYLOAD,2024-03-08 11:43:20,14.9833067,0.0002915,70.0009,208.2348,268.9068,91.1757,3.2981e-05,3.01e-06,0.0,0 STARLINK-5328,1 55657U 23021AF  24068.48842695  .00000301  00000-0  32981-4 0  9993,2 55657  70.0009 208.2348 0002915 268.9068  91.1757 14.98330670 59756,6950.191,96.107,574.082,570.03,0.0
55657.0,STARLINK-5328,PAYLOAD,2024-03-09 11:45:20,14.98330039,0.0002827,70.0011,205.7112,264.752,95.3316,1.3025e-05,6.2e-07,0.0,0 STARLINK-5328,1 55657U 23021AF  24069.48982598  .00000062  00000-0  13025-4 0  9993,2 55657  70.0011 205.7112 0002827 264.7520  95.3316 14.98330039 59609,6950.193,96.107,574.023,570.093,0.0
55657.0,STARLINK-5328,PAYLOAD,2024-03-09 14:57:37,14.9833083,0.0002834,70.0011,205.3743,265.7071,94.3764,1.8159e-05,1.24e-06,0.0,0 STARLINK-5328,1 55657U 23021AF  24069.62334518  .00000124  00000-0  18159-4 0  9994,2 55657  70.0011 205.3743 0002834 265.7071  94.3764 14.98330830 59925,6950.19,96.107,574.025,570.086,0.0
55657.0,STARLINK-5328,PAYLOAD,2024-03-10 11:47:21,14.9833243,0.0002792,70.0006,203.1858,265.1384,94.9456,-1.7825e-05,-3.06e-06,0.0,0 STARLINK-5328,1 55657U 23021AF  24070.49122394 -.00000306  00000-0 -17825-4 0  9991,2 55657  70.0006 203.1858 0002792 265.1384  94.9456 14.98332430 59759,6950.185,96.107,573.991,570.11,0.0
